[{"OBJECT_NAME":"STARLINK-36268","OBJECT_ID":"2025-304H","EPOCH":"2026-03-09T15:12:11.621376","MEAN_MOTION":14.98330189,"ECCENTRICITY":0.00032616,"INCLINATION":70.0018,"RA_OF_ASC_NODE":174.6997,"ARG_OF_PERICENTER":271.9396,"MEAN_ANOMALY":88.1389,"EPHEMERIS_TYPE":0,"CLASSIFICATION_TYPE":"U","NORAD_CAT_ID":67199,"ELEMENT_SET_NO":999,"REV_AT_EPOCH":1387,"BSTAR":0.00034070806,"MEAN_MOTION_DOT":3.975e-5,"MEAN_MOTION_DDOT":0},{"OBJECT_NAME":"ESSAIM-3","OBJECT_ID":"2004-049E","EPOCH":"2026-03-09T17:57:07.382304","MEAN_MOTION":14.96054296,"ECCENTRICITY":0.00013371,"INCLINATION":98.2193,"RA_OF_ASC_NODE":0.6383,"ARG_OF_PERICENTER":147.2664,"MEAN_ANOMALY":212.8639,"EPHEMERIS_TYPE":0,"CLASSIFICATION_TYPE":"U","NORAD_CAT_ID":28496,"ELEMENT_SET_NO":999,"REV_AT_EPOCH":14785,"BSTAR":0.00036464987,"MEAN_MOTION_DOT":4.033e-5,"MEAN_MOTION_DDOT":0}]
